QUETZAL-1               
1 45598U 98067RL  20360.59993518  .00017310  00000-0  26905-3 0  9998
2 45598  51.6405 117.5741 0002358  68.9393 291.1850 15.54034149 37479
RED-EYE 2 (MERLOT)      
1 45800U 98067RM  20360.60568600  .00006755  00000-0  12068-3 0  9992
2 45800  51.6412 119.8531 0001274  36.3417 323.7659 15.51291106 29685
RED-EYE 3 (CABERNET)    
1 45809U 98067RN  20360.60622009  .00006773  00000-0  12099-3 0  9999
2 45809  51.6413 119.8569 0001369  20.4020 339.7024 15.51288204 28660
DEMI                    
1 45916U 98067RP  20360.57478373  .00014891  00000-0  23886-3 0  9993
2 45916  51.6410 118.9051 0002119 297.0949  62.9825 15.53288761 25669
TECHEDSAT 10            
1 45917U 98067RQ  20360.59135701  .00109146  00000-0  10525-2 0  9994
2 45917  51.6365 113.7523 0006440 319.1102  40.9409 15.65635168 25680
PROGRESS-MS 15          
1 45937U 20050A   20360.60630728  .00001401  00000-0  33325-4 0  9994
2 45937  51.6445 121.3255 0001344 158.9431 212.8537 15.49225269261694
CYGNUS NG-14            
1 46530U 20069A   20360.60630728  .00001401  00000-0  33325-4 0  9994
2 46530  51.6445 121.3255 0001344 158.9431 212.8537 15.49225269261694
SOYUZ-MS 17             
1 46613U 20072A   20360.60630728  .00001401  00000-0  33325-4 0  9990
2 46613  51.6445 121.3255 0001344 158.9431 212.8537 15.49225269261696
CREW DRAGON 1           
1 46920U 20084A   20360.60630728  .00001401  00000-0  33325-4 0  9994
2 46920  51.6445 121.3255 0001344 158.9431 212.8537 15.49225269261697
SPOC                    
1 46921U 98067RR  20360.55689655  .00010754  00000-0  18835-3 0  9997
2 46921  51.6421 121.0298 0002304 144.6854 215.4289 15.51158050  7848
BOBCAT-1                
1 46922U 98067RS  20360.55230885  .00014913  00000-0  25501-3 0  9994
2 46922  51.6423 121.0002 0001918 150.5647 209.5450 15.51494346  7801
NEUTRON-1               
1 46923U 98067RT  20360.55974002  .00010606  00000-0  18649-3 0  9991
2 46923  51.6420 121.0483 0002142 158.2276 201.8805 15.51061638  7875
1998-067RU              
1 46924U 98067RU  20360.54598760  .00022442  00000-0  37207-3 0  9996
2 46924  51.6417 120.9568 0001732 203.6792 156.4118 15.52050303  7843
LEMUR-2-BAXTER-OLIVER   
1 46925U 98067RV  20360.54242325  .00020513  00000-0  33939-3 0  9995
2 46925  51.6424 120.9354 0001659 201.8827 158.2092 15.52167912  7804
LEMUR-2-DJARA           
1 46926U 98067RW  20360.60961151  .00019839  00000-0  32931-3 0  9998
2 46926  51.6420 120.6337 0001078 165.8086 194.2935 15.52100842  7838
DESCENT                 
1 46927U 98067RX  20360.56169030  .00010961  00000-0  19275-3 0  9993
2 46927  51.6419 121.0606 0002151 181.2033 178.8952 15.51019542  7784
DRAGON CRS-21           
1 47233U 20093A   20360.60630728  .00001401  00000-0  33325-4 0  9992
2 47233  51.6445 121.3255 0001344 158.9431 212.8537 15.49225269261695
